CELESTIS-17 & SHERPA-FX1
1 47486U 21006CB  26068.64311433  .00007207  00000+0  24301-3 0  9993
2 47486  97.2397 112.1052 0006630 178.1385 181.9882 15.30994801284065
STARLINK-30427          
1 57865U 23144B   26067.67654380  .00000036  00000+0  10830-4 0  9999
2 57865  43.0007 290.8198 0001476 234.3471 125.7243 15.27578133137441
